{"type": "FeatureCollection", "features": [ {"type": "Feature", "properties": {"norad_id": 38755, "name": "SPOT 6", "group": "resource", "lat": 75.5374249237526, "lon": -103.95745200563668, "alt_km": 689.8309743062719, "timestamp": "2025-12-03T06:58:42.898213+00:00", "meta": {"OBJECT_NAME": "SPOT 6", "OBJECT_ID": "2012-047A", "EPOCH": "2025-12-02T20:38:04.142688", "MEAN_MOTION": 14.58587637, "ECCENTRICITY": 0.0001036, "INCLINATION": 98.1585, "RA_OF_ASC_NODE": 41.8255, "ARG_OF_PERICENTER": 99.9108, "MEAN_ANOMALY": 260.2208, "EPHEMERIS_TYPE": 0, "CLASSIFICATION_TYPE": "U", "NORAD_CAT_ID": 38755, "ELEMENT_SET_NO": 999, "REV_AT_EPOCH": 70443, "BSTAR": 0.00013189, "MEAN_MOTION_DOT": 5.68e-06, "MEAN_MOTION_DDOT": 0}, "tle": {"line1": "1 38755U 12047A   25336.85977017  .00000568  00000+0  13189-3 0  9998", "line2": "2 38755  98.1585  41.8255 0001036  99.9108 260.2208 14.58587637704439"}}, "geometry": {"type": "Point", "coordinates": [-103.95745200563668, 75.5374249237526]}}, {"type": "Feature", "properties": {"norad_id": 39019, "name": "PLEIADES 1B", "group": "resource", "lat": 2.059601181449232, "lon": 49.79483013755844, "alt_km": 700.5179937543089, "timestamp": "2025-12-03T06:58:42.898223+00:00", "meta": {"OBJECT_NAME": "PLEIADES 1B", "OBJECT_ID": "2012-068A", "EPOCH": "2025-12-02T19:26:37.848192", "MEAN_MOTION": 14.58536815, "ECCENTRICITY": 0.0001257, "INCLINATION": 98.1808, "RA_OF_ASC_NODE": 49.6182, "ARG_OF_PERICENTER": 87.6818, "MEAN_ANOMALY": 272.4525, "EPHEMERIS_TYPE": 0, "CLASSIFICATION_TYPE": "U", "NORAD_CAT_ID": 39019, "ELEMENT_SET_NO": 999, "REV_AT_EPOCH": 69222, "BSTAR": 0.00013424, "MEAN_MOTION_DOT": 5.78e-06, "MEAN_MOTION_DDOT": 0}, "tle": {"line1": "1 39019U 12068A   25336.81016028  .00000578  00000+0  13424-3 0  9990", "line2": "2 39019  98.1808  49.6182 0001257  87.6818 272.4525 14.58536815692225"}}, "geometry": {"type": "Point", "coordinates": [49.79483013755844, 2.059601181449232]}}, {"type": "Feature", "properties": {"norad_id": 39030, "name": "GOKTURK 2", "group": "resource", "lat": 9.265292999246798, "lon": 178.1454102485571, "alt_km": 645.9634135011693, "timestamp": "2025-12-03T06:58:42.898234+00:00", "meta": {"OBJECT_NAME": "GOKTURK 2", "OBJECT_ID": "2012-073A", "EPOCH": "2025-12-02T19:32:29.826240", "MEAN_MOTION": 14.75268369, "ECCENTRICITY": 7.98e-05, "INCLINATION": 97.69, "RA_OF_ASC_NODE": 178.9555, "ARG_OF_PERICENTER": 93.967, "MEAN_ANOMALY": 266.1631, "EPHEMERIS_TYPE": 0, "CLASSIFICATION_TYPE": "U", "NORAD_CAT_ID": 39030, "ELEMENT_SET_NO": 999, "REV_AT_EPOCH": 69555, "BSTAR": 0.00013867, "MEAN_MOTION_DOT": 8.91e-06, "MEAN_MOTION_DDOT": 0}, "tle": {"line1": "1 39030U 12073A   25336.81423410  .00000891  00000+0  13867-3 0  9995", "line2": "2 39030  97.6900 178.9555 0000798  93.9670 266.1631 14.75268369695552"}}, "geometry": {"type": "Point", "coordinates": [178.1454102485571, 9.265292999246798]}}, {"type": "Feature", "properties": {"norad_id": 39084, "name": "LANDSAT 8", "group": "resource", "lat": -40.64242153868919, "lon": -141.61450845151924, "alt_km": 709.5410917084419, "timestamp": "2025-12-03T06:58:42.898244+00:00", "meta": {"OBJECT_NAME": "LANDSAT 8", "OBJECT_ID": "2013-008A", "EPOCH": "2025-12-02T18:25:51.094272", "MEAN_MOTION": 14.57124048, "ECCENTRICITY": 0.0001075, "INCLINATION": 98.2085, "RA_OF_ASC_NODE": 44.988, "ARG_OF_PERICENTER": 88.5991, "MEAN_ANOMALY": 271.5331, "EPHEMERIS_TYPE": 0, "CLASSIFICATION_TYPE": "U", "NORAD_CAT_ID": 39084, "ELEMENT_SET_NO": 999, "REV_AT_EPOCH": 66929, "BSTAR": 0.00014051, "MEAN_MOTION_DOT": 5.88e-06, "MEAN_MOTION_DDOT": 0}, "tle": {"line1": "1 39084U 13008A   25336.76795248  .00000588  00000+0  14051-3 0  9997", "line2": "2 39084  98.2085  44.9880 0001075  88.5991 271.5331 14.57124048669294"}}, "geometry": {"type": "Point", "coordinates": [-141.61450845151924, -40.64242153868919]}}, {"type": "Feature", "properties": {"norad_id": 39086, "name": "SARAL", "group": "resource", "lat": -45.65946976745685, "lon": 170.20038512414902, "alt_km": 791.1184337317427, "timestamp": "2025-12-03T06:58:42.898255+00:00", "meta": {"OBJECT_NAME": "SARAL", "OBJECT_ID": "2013-009A", "EPOCH": "2025-12-02T19:27:43.464672", "MEAN_MOTION": 14.32751288, "ECCENTRICITY": 0.0002606, "INCLINATION": 98.5507, "RA_OF_ASC_NODE": 160.8707, "ARG_OF_PERICENTER": 127.821, "MEAN_ANOMALY": 232.321, "EPHEMERIS_TYPE": 0, "CLASSIFICATION_TYPE": "U", "NORAD_CAT_ID": 39086, "ELEMENT_SET_NO": 999, "REV_AT_EPOCH": 66748, "BSTAR": 8.6935e-05, "MEAN_MOTION_DOT": 1.93e-06, "MEAN_MOTION_DDOT": 0}, "tle": {"line1": "1 39086U 13009A   25336.81091973  .00000193  00000+0  86935-4 0  9993", "line2": "2 39086  98.5507 160.8707 0002606 127.8210 232.3210 14.32751288667481"}}, "geometry": {"type": "Point", "coordinates": [170.20038512414902, -45.65946976745685]}}, {"type": "Feature", "properties": {"norad_id": 39150, "name": "GAOFEN-1", "group": "resource", "lat": 44.403664308555186, "lon": 40.26630325480759, "alt_km": 644.1593041970427, "timestamp": "2025-12-03T06:58:42.898265+00:00", "meta": {"OBJECT_NAME": "GAOFEN-1", "OBJECT_ID": "2013-018A", "EPOCH": "2025-12-02T21:00:59.007744", "MEAN_MOTION": 14.76504783, "ECCENTRICITY": 0.0017608, "INCLINATION": 97.934, "RA_OF_ASC_NODE": 47.7089, "ARG_OF_PERICENTER": 174.0125, "MEAN_ANOMALY": 186.1298, "EPHEMERIS_TYPE": 0, "CLASSIFICATION_TYPE": "U", "NORAD_CAT_ID": 39150, "ELEMENT_SET_NO": 999, "REV_AT_EPOCH": 67927, "BSTAR": 0.00016915, "MEAN_MOTION_DOT": 1.13e-05, "MEAN_MOTION_DDOT": 0}, "tle": {"line1": "1 39150U 13018A   25336.87568296  .00001130  00000+0  16915-3 0  9990", "line2": "2 39150  97.9340  47.7089 0017608 174.0125 186.1298 14.76504783679270"}}, "geometry": {"type": "Point", "coordinates": [40.26630325480759, 44.403664308555186]}}, {"type": "Feature", "properties": {"norad_id": 39160, "name": "VNREDSAT 1", "group": "resource", "lat": 37.44031765864938, "lon": -140.97019451229437, "alt_km": 674.20846162402, "timestamp": "2025-12-03T06:58:42.898276+00:00", "meta": {"OBJECT_NAME": "VNREDSAT 1", "OBJECT_ID": "2013-021B", "EPOCH": "2025-12-02T20:29:47.415264", "MEAN_MOTION": 14.64897967, "ECCENTRICITY": 0.0001374, "INCLINATION": 97.9387, "RA_OF_ASC_NODE": 32.4749, "ARG_OF_PERICENTER": 83.898, "MEAN_ANOMALY": 276.238, "EPHEMERIS_TYPE": 0, "CLASSIFICATION_TYPE": "U", "NORAD_CAT_ID": 39160, "ELEMENT_SET_NO": 999, "REV_AT_EPOCH": 67154, "BSTAR": 0.00019363, "MEAN_MOTION_DOT": 9.89e-06, "MEAN_MOTION_DDOT": 0}, "tle": {"line1": "1 39160U 13021B   25336.85402101  .00000989  00000+0  19363-3 0  9996", "line2": "2 39160  97.9387  32.4749 0001374  83.8980 276.2380 14.64897967671546"}}, "geometry": {"type": "Point", "coordinates": [-140.97019451229437, 37.44031765864938]}}, {"type": "Feature", "properties": {"norad_id": 39227, "name": "ARIRANG-5 (KOMPSAT-5)", "group": "resource", "lat": -43.9457850869603, "lon": 169.13932409634464, "alt_km": 561.5298655636179, "timestamp": "2025-12-03T06:58:42.898286+00:00", "meta": {"OBJECT_NAME": "ARIRANG-5 (KOMPSAT-5)", "OBJECT_ID": "2013-042A", "EPOCH": "2025-12-02T20:00:08.241408", "MEAN_MOTION": 15.0449923, "ECCENTRICITY": 0.0004321, "INCLINATION": 97.6159, "RA_OF_ASC_NODE": 161.2787, "ARG_OF_PERICENTER": 83.2774, "MEAN_ANOMALY": 276.8944, "EPHEMERIS_TYPE": 0, "CLASSIFICATION_TYPE": "U", "NORAD_CAT_ID": 39227, "ELEMENT_SET_NO": 999, "REV_AT_EPOCH": 67433, "BSTAR": 0.00014858, "MEAN_MOTION_DOT": 2.019e-05, "MEAN_MOTION_DDOT": 0}, "tle": {"line1": "1 39227U 13042A   25336.83342872  .00002019  00000+0  14858-3 0  9999", "line2": "2 39227  97.6159 161.2787 0004321  83.2774 276.8944 15.04499230674335"}}, "geometry": {"type": "Point", "coordinates": [169.13932409634464, -43.9457850869603]}}, {"type": "Feature", "properties": {"norad_id": 39418, "name": "SKYSAT-A", "group": "resource", "lat": 82.57831629864066, "lon": -60.391599077989994, "alt_km": 538.3139078186432, "timestamp": "2025-12-03T06:58:42.898296+00:00", "meta": {"OBJECT_NAME": "SKYSAT-A", "OBJECT_ID": "2013-066C", "EPOCH": "2025-12-02T16:16:56.390880", "MEAN_MOTION": 15.11484666, "ECCENTRICITY": 0.0020458, "INCLINATION": 97.4129, "RA_OF_ASC_NODE": 27.1932, "ARG_OF_PERICENTER": 273.801, "MEAN_ANOMALY": 86.0881, "EPHEMERIS_TYPE": 0, "CLASSIFICATION_TYPE": "U", "NORAD_CAT_ID": 39418, "ELEMENT_SET_NO": 999, "REV_AT_EPOCH": 65878, "BSTAR": 0.00030064, "MEAN_MOTION_DOT": 5.05e-05, "MEAN_MOTION_DDOT": 0}, "tle": {"line1": "1 39418U 13066C   25336.67843045  .00005050  00000+0  30064-3 0  9992", "line2": "2 39418  97.4129  27.1932 0020458 273.8010  86.0881 15.11484666658780"}}, "geometry": {"type": "Point", "coordinates": [-60.391599077989994, 82.57831629864066]}}, {"type": "Feature", "properties": {"norad_id": 39419, "name": "DUBAISAT-2", "group": "resource", "lat": -17.34252084906392, "lon": -29.66841872173174, "alt_km": 538.9342593776073, "timestamp": "2025-12-03T06:58:42.898307+00:00", "meta": {"OBJECT_NAME": "DUBAISAT-2", "OBJECT_ID": "2013-066D", "EPOCH": "2025-12-02T21:30:07.251264", "MEAN_MOTION": 15.08204747, "ECCENTRICITY": 0.0011546, "INCLINATION": 97.4442, "RA_OF_ASC_NODE": 327.6089, "ARG_OF_PERICENTER": 357.8971, "MEAN_ANOMALY": 2.2207, "EPHEMERIS_TYPE": 0, "CLASSIFICATION_TYPE": "U", "NORAD_CAT_ID": 39419, "ELEMENT_SET_NO": 999, "REV_AT_EPOCH": 65678, "BSTAR": 0.00041165, "MEAN_MOTION_DOT": 6.318e-05, "MEAN_MOTION_DDOT": 0}, "tle": {"line1": "1 39419U 13066D   25336.89591726  .00006318  00000+0  41165-3 0  9995", "line2": "2 39419  97.4442 327.6089 0011546 357.8971   2.2207 15.08204747656783"}}, "geometry": {"type": "Point", "coordinates": [-29.66841872173174, -17.34252084906392]}}]}